OBJECT_NAME,OBJECT_ID,EPOCH,MEAN_MOTION,ECCENTRICITY,INCLINATION,RA_OF_ASC_NODE,ARG_OF_PERICENTER,MEAN_ANOMALY,EPHEMERIS_TYPE,CLASSIFICATION_TYPE,NORAD_CAT_ID,ELEMENT_SET_NO,REV_AT_EPOCH,BSTAR,MEAN_MOTION_DOT,MEAN_MOTION_DDOT
COSMOS 2534 (758),2019-030A,2026-06-29T15:50:49.664256,2.13102425,.00135177,64.3700,192.1964,275.0224,73.0621,0,U,44299,999,5518,0,.85E-6,0
BEIDOU-3 IGSO-2 (C39),2019-035A,2026-07-02T19:47:11.685984,1.00261959,.0039597,55.2498,158.7251,216.3437,321.7336,0,U,44337,999,2582,0,-.99E-6,0
GPS BIII-2  (PRN 18),2019-056A,2026-07-01T20:17:32.477856,2.00570204,.00627565,55.6295,330.5609,197.8313,333.9324,0,U,44506,999,5036,0,-.81E-6,0
BEIDOU-3 M24 (C46),2019-061A,2026-06-30T03:06:14.697792,1.86229317,.00085596,54.3970,182.2910,358.7023,1.3089,0,U,44542,999,4603,0,.71E-6,0
BEIDOU-3 M23 (C45),2019-061B,2026-07-01T06:49:16.460256,1.86227570,.0005861,54.3961,182.2208,339.3094,346.4976,0,U,44543,999,4605,0,.7E-6,0
EUTELSAT 5 WEST B (EGNOS/PRN 121),2019-067A,2026-07-02T17:22:45.636384,1.00271497,.0003401,0.0702,331.4543,130.1820,74.8137,0,U,44624,999,2459,0,-.31E-6,0
BEIDOU-3 M22 (C44),2019-078A,2026-07-02T02:48:48.341088,1.86227671,.0005958,53.9213,299.3025,49.9871,310.0853,0,U,44793,999,4492,0,-.61E-6,0
BEIDOU-3 M21 (C43),2019-078B,2026-06-27T23:04:25.677120,1.86227959,.00039786,53.8982,299.4091,49.1157,310.9195,0,U,44794,999,4485,0,-.87E-6,0
COSMOS 2544 (759),2019-088A,2026-07-02T12:21:34.940736,2.13103168,.0012628,65.5733,73.2191,256.5667,103.3590,0,U,44850,999,5104,0,-.8E-7,0
BEIDOU-3 M19 (C41),2019-090A,2026-07-02T17:41:22.022880,1.86231685,.0017139,56.5715,62.2771,297.4184,221.8650,0,U,44864,999,4452,0,-.37E-6,0
BEIDOU-3 M20 (C42),2019-090B,2026-07-02T15:58:39.158400,1.86231813,.0015126,56.5739,62.3139,311.8646,249.1839,0,U,44865,999,4450,0,-.37E-6,0
BEIDOU-3 G2 (C60),2020-017A,2026-07-02T19:53:59.682336,1.00271577,.0002593,2.8942,47.5704,45.3695,206.5155,0,U,45344,999,2341,0,-.131E-5,0
COSMOS 2545 (760),2020-018A,2026-06-29T10:12:09.408960,2.13102698,.0008865,64.3471,311.9885,229.6303,130.2863,0,U,45358,999,4892,0,-.68E-6,0
BEIDOU-3 G3 (C61),2020-040A,2026-07-02T19:36:06.484608,1.00271585,.0002467,2.4838,67.4780,333.3982,284.5678,0,U,45807,999,2222,0,-.344E-5,0
GPS BIII-3  (PRN 23),2020-041A,2026-06-29T16:53:58.819200,2.00558738,.006557,56.6684,28.4552,209.6857,153.6636,0,U,45854,999,4429,0,-.68E-6,0
GALAXY 30 (WAAS/PRN 135),2020-056C,2026-07-02T16:48:10.640160,1.00271672,.0002166,0.0212,28.7704,73.6259,305.3858,0,U,46114,999,2144,0,0,0
COSMOS 2547 (705K),2020-075A,2026-06-30T13:16:42.878784,2.13100012,.00093996,64.6009,192.0293,239.7356,120.2111,0,U,46805,999,4419,0,.81E-6,0
GPS BIII-4  (PRN 14),2020-078A,2026-07-01T06:33:33.963264,2.00565158,.0074038,53.9787,210.2073,207.5025,185.7090,0,U,46826,999,4179,0,.67E-6,0
GPS BIII-5  (PRN 11),2021-054A,2026-07-02T00:34:02.169408,2.00568335,.0025946,55.1671,331.8638,228.3850,172.9360,0,U,48859,999,3705,0,-.82E-6,0
QZS-1R (QZSS/PRN 196),2021-096A,2026-07-02T14:34:09.310944,1.00250822,.0755908,37.4911,79.3558,272.0505,280.6356,0,U,49336,999,1716,0,-.27E-5,0
GSAT0223 (GALILEO 27),2021-116A,2026-07-02T19:53:50.092800,1.70476290,.0001768,57.1560,341.2534,186.4636,173.1397,0,U,49809,999,2844,0,-.77E-6,0
GSAT0224 (GALILEO 28),2021-116B,2026-06-30T14:13:57.006624,1.70476570,.00014283,57.1567,341.3123,163.7362,16.1903,0,U,49810,999,2843,0,-.84E-6,0
COSMOS 2557 (706K),2022-075A,2026-06-29T07:25:57.374112,2.13102382,.00105914,64.2907,314.0587,272.5686,87.3025,0,U,52984,999,3097,0,-.7E-6,0
COSMOS 2559 (707K),2022-130A,2026-07-02T09:56:26.099808,2.13101797,.0012865,64.2614,314.0319,179.6786,180.3256,0,U,54031,999,2901,0,-.51E-6,0
COSMOS 2564 (761),2022-161A,2026-07-01T18:54:53.975808,2.13102081,.0012266,64.7430,192.2270,225.1049,134.8302,0,U,54377,999,2794,0,.8E-6,0
GPS BIII-6  (PRN 28),2023-009A,2026-07-01T18:20:00.000096,2.00571084,.00062623,55.1238,147.9465,318.3854,293.8670,0,U,55268,999,2553,0,.4E-6,0
BEIDOU-3 G4 (C62),2023-066A,2026-07-02T18:04:09.052320,1.00268750,.000503,0.4711,335.3583,176.6908,179.7943,0,U,56564,999,1154,0,-.271E-5,0
NVS-01 (IRNSS-1J),2023-076A,2026-07-02T18:01:09.337728,1.00271816,.0002933,2.1315,243.6489,8.6195,68.3827,0,U,56759,999,1127,0,-.324E-5,0
COSMOS 2569 (703K),2023-114A,2026-06-30T09:25:27.591744,2.13103831,.00101962,65.3095,72.1752,296.5286,63.4269,0,U,57517,999,2254,0,-.2E-6,0
BEIDOU-3 M28 (C50),2023-207A,2026-07-02T08:01:10.012224,1.86229871,.0002782,55.7660,61.7922,356.6345,3.4321,0,U,58654,999,1712,0,-.4E-6,0
BEIDOU-3 M26 (C48),2023-207B,2026-07-02T03:09:33.613920,1.86229850,.000248,55.7681,61.7855,322.6167,37.4340,0,U,58655,999,1710,0,-.41E-6,0
